[{"OBJECT_NAME":"TYVAK-0173","OBJECT_ID":"2021-059P","EPOCH":"2026-03-09T20:34:33.037248","MEAN_MOTION":14.81501003,"ECCENTRICITY":0.0009326,"INCLINATION":96.0076,"RA_OF_ASC_NODE":169.9257,"ARG_OF_PERICENTER":18.4576,"MEAN_ANOMALY":341.6978,"EPHEMERIS_TYPE":0,"CLASSIFICATION_TYPE":"U","NORAD_CAT_ID":48892,"ELEMENT_SET_NO":999,"REV_AT_EPOCH":25353,"BSTAR":0.00038359729,"MEAN_MOTION_DOT":2.977e-5,"MEAN_MOTION_DDOT":0},{"OBJECT_NAME":"NOAA 16 DEB","OBJECT_ID":"2000-055QH","EPOCH":"2026-03-09T15:04:09.573312","MEAN_MOTION":14.74544722,"ECCENTRICITY":0.0024856,"INCLINATION":98.7212,"RA_OF_ASC_NODE":213.2868,"ARG_OF_PERICENTER":301.3825,"MEAN_ANOMALY":58.495,"EPHEMERIS_TYPE":0,"CLASSIFICATION_TYPE":"U","NORAD_CAT_ID":42341,"ELEMENT_SET_NO":999,"REV_AT_EPOCH":52612,"BSTAR":0.0039357,"MEAN_MOTION_DOT":0.00026363,"MEAN_MOTION_DDOT":0}]
